ORBCOMM FM06            
1 25118U 97084G   26192.36242052  .00000580  00000+0  19501-3 0  9990
2 25118  45.0144 296.3278 0001264 220.9817 182.2586 14.47622091497891
ORBCOMM FM19            
1 25415U 98046C   26192.17717476  .00000526  00000+0  21254-3 0  9993
2 25415  44.9929 129.5229 0003404  36.9057  95.2958 14.39537016460239
ORBCOMM FM20            
1 25416U 98046D   26192.88309853  .00000320  00000+0  15131-3 0  9997
2 25416  44.9932 134.3631 0001721 339.4017  20.6761 14.38096936460348
ORBCOMM FM27            
1 25481U 98053G   26192.48362371  .00000334  00000+0  15260-3 0  9995
2 25481  45.0035 219.9500 0002441 278.1343  81.9229 14.39181226453734
ORBCOMM FM32            
1 25982U 99065C   26191.99502811  .00000324  00000+0  15528-3 0  9991
2 25982  45.0156  60.5450 0005291 171.5965 188.4973 14.37164512390512
ORBCOMM FM109           
1 40086U 14040A   26192.41116868  .00000148  00000+0  67459-4 0  9999
2 40086  47.0045 336.9567 0001649 310.9227  49.1516 14.58870325637884
ORBCOMM FM110           
1 41182U 15081D   26192.62154704  .00000197  00000+0  77907-4 0  9990
2 41182  47.0009 245.9084 0003438 207.7250 152.3453 14.58915508561192
ORBCOMM FM118           
1 41183U 15081E   26191.62866871  .00000111  00000+0  59776-4 0  9995
2 41183  47.0030 250.9400 0002651 164.1790 195.9179 14.58901793561151
ORBCOMM FM112           
1 41184U 15081F   26192.24912345  .00000392  00000+0  11894-3 0  9992
2 41184  46.9978 156.4607 0003891 312.3848  47.6708 14.58935043562469
ORBCOMM FM113           
1 41185U 15081G   26192.29505712  .00000163  00000+0  70748-4 0  9994
2 41185  46.9996 156.6323 0002407 307.2062  52.8604 14.58879671562456
ORBCOMM FM108           
1 41187U 15081J   26192.05167343  .00000291  00000+0  97793-4 0  9995
2 41187  47.0051  69.3634 0002852 307.2078  52.8547 14.58906507563566
ORBCOMM FM117           
1 41188U 15081K   26192.01737147  .00000273  00000+0  94009-4 0  9994
2 41188  47.0015  68.1537 0003288 313.4287  46.6324 14.58893758563603
ORBCOMM FM116           
1 41189U 15081L   26192.27147842  .00000082  00000+0  53499-4 0  9996
2 41189  47.0011 156.7408 0001379 218.1214 141.9574 14.58903266562455
