OBJECT_NAME,OBJECT_ID,EPOCH,MEAN_MOTION,ECCENTRICITY,INCLINATION,RA_OF_ASC_NODE,ARG_OF_PERICENTER,MEAN_ANOMALY,EPHEMERIS_TYPE,CLASSIFICATION_TYPE,NORAD_CAT_ID,ELEMENT_SET_NO,REV_AT_EPOCH,BSTAR,MEAN_MOTION_DOT,MEAN_MOTION_DDOT
ORBCOMM FM06,1997-084G,2026-07-11T08:41:53.132928,14.47622091,.00012649,45.0144,296.3278,220.9817,182.2586,0,U,25118,999,49789,.19501165E-3,.58E-5,0
ORBCOMM FM19,1998-046C,2026-07-11T04:15:07.899264,14.39537016,.00034042,44.9929,129.5229,36.9057,95.2958,0,U,25415,999,46023,.21254331E-3,.526E-5,0
ORBCOMM FM20,1998-046D,2026-07-11T21:11:39.712128,14.38096936,.0001721,44.9932,134.3631,339.4017,20.6761,0,U,25416,999,46034,.15131E-3,.32E-5,0
ORBCOMM FM27,1998-053G,2026-07-11T11:36:25.088544,14.39181226,.00024412,45.0035,219.9500,278.1343,81.9229,0,U,25481,999,45373,.15259703E-3,.334E-5,0
ORBCOMM FM32,1999-065C,2026-07-10T23:52:50.428704,14.37164512,.00052919,45.0156,60.5450,171.5965,188.4973,0,U,25982,999,39051,.1552816E-3,.324E-5,0
ORBCOMM FM109,2014-040A,2026-07-11T09:52:04.973952,14.58870325,.00016494,47.0045,336.9567,310.9227,49.1516,0,U,40086,999,63788,.67459469E-4,.148E-5,0
ORBCOMM FM110,2015-081D,2026-07-11T14:55:01.664256,14.58915508,.0003438,47.0009,245.9084,207.7250,152.3453,0,U,41182,999,56119,.77907E-4,.197E-5,0
ORBCOMM FM118,2015-081E,2026-07-10T15:05:16.976544,14.58901793,.00026519,47.0030,250.9400,164.1790,195.9179,0,U,41183,999,56115,.59775928E-4,.111E-5,0
ORBCOMM FM112,2015-081F,2026-07-11T05:58:44.266080,14.58935043,.00038914,46.9978,156.4607,312.3848,47.6708,0,U,41184,999,56246,.11894191E-3,.392E-5,0
ORBCOMM FM113,2015-081G,2026-07-11T07:04:52.935168,14.58879671,.0002407,46.9996,156.6323,307.2062,52.8604,0,U,41185,999,56245,.70748103E-4,.163E-5,0
ORBCOMM FM108,2015-081J,2026-07-11T01:14:24.584352,14.58906507,.00028521,47.0051,69.3634,307.2078,52.8547,0,U,41187,999,56356,.97793092E-4,.291E-5,0
ORBCOMM FM117,2015-081K,2026-07-11T00:25:00.895008,14.58893758,.00032883,47.0015,68.1537,313.4287,46.6324,0,U,41188,999,56360,.94009142E-4,.273E-5,0
ORBCOMM FM116,2015-081L,2026-07-11T06:30:55.735488,14.58903266,.00013799,47.0011,156.7408,218.1214,141.9574,0,U,41189,999,56245,.53498669E-4,.82E-6,0
